OBJECT_NAME,OBJECT_ID,EPOCH,MEAN_MOTION,ECCENTRICITY,INCLINATION,RA_OF_ASC_NODE,ARG_OF_PERICENTER,MEAN_ANOMALY,EPHEMERIS_TYPE,CLASSIFICATION_TYPE,NORAD_CAT_ID,ELEMENT_SET_NO,REV_AT_EPOCH,BSTAR,MEAN_MOTION_DOT,MEAN_MOTION_DDOT
GPS BIIR-5  (PRN 22),2000-040A,2026-07-19T06:50:21.369120,2.00557942,.01203999,54.8481,213.8872,302.7967,116.6545,0,U,26407,999,19059,0,.51E-6,0
GPS BIIR-8  (PRN 16),2003-005A,2026-07-19T15:24:39.417696,2.00558849,.01483825,54.8785,213.6792,53.1867,40.3574,0,U,27663,999,17196,0,.55E-6,0
GPS BIIR-11 (PRN 19),2004-009A,2026-07-18T21:21:50.796864,2.00553630,.01172971,54.8035,274.4049,174.5065,248.5717,0,U,28190,999,16358,0,-.48E-6,0
GPS BIIR-13 (PRN 02),2004-045A,2026-07-17T16:13:45.005376,2.00557200,.01702252,55.1165,323.6683,317.1195,14.5735,0,U,28474,999,15903,0,-.98E-6,0
GPS BIIRM-1 (PRN 17),2005-038A,2026-07-19T06:03:48.718944,2.00563490,.01282841,54.8522,271.8818,296.4647,58.1733,0,U,28874,999,15247,0,-.45E-6,0
INMARSAT 4-F2 (SOUTHPAN/PRN 122),2005-044A,2026-07-19T12:08:44.022912,1.00271241,.00028801,5.1373,43.6791,61.6466,157.6414,0,U,28899,999,7584,0,-.267E-5,0
GPS BIIRM-2 (PRN 31),2006-042A,2026-07-19T13:04:18.926400,2.00568023,.01073038,54.7131,150.0543,55.2816,49.2294,0,U,29486,999,14504,0,.37E-6,0
GPS BIIRM-3 (PRN 12),2006-052A,2026-07-19T07:52:26.159520,2.00559939,.00847462,54.9319,212.7321,91.0060,269.9916,0,U,29601,999,14405,0,.52E-6,0
GPS BIIRM-4 (PRN 15),2007-047A,2026-07-19T15:12:50.941152,2.00553792,.0167937,54.1192,78.7281,88.0942,273.8872,0,U,32260,999,13746,0,-.6E-6,0
COSMOS 2433 (720),2007-052A,2026-07-17T21:16:46.394976,2.13104037,.0003631,65.5578,314.9006,203.8821,156.1180,0,U,32275,999,14571,0,-.7E-6,0
COSMOS 2432 (719),2007-052B,2026-07-19T10:17:25.948320,2.13103034,.00073737,65.5728,314.9771,321.3714,85.4621,0,U,32276,999,14577,0,-.79E-6,0
GPS BIIRM-5 (PRN 29),2007-062A,2026-07-19T10:11:38.615136,2.00561903,.00360699,55.0061,272.8552,167.8410,169.2189,0,U,32384,999,13615,0,-.47E-6,0
COSMOS 2434 (721),2007-065A,2026-07-18T11:53:46.942080,2.13101158,.00012335,64.3202,190.8597,326.9616,29.9549,0,U,32393,999,14443,0,.65E-6,0
COSMOS 2436 (723),2007-065C,2026-07-19T06:28:38.477856,2.13099955,.0017323,64.3288,190.9062,353.6303,9.4043,0,U,32395,999,14441,0,.73E-6,0
GPS BIIRM-6 (PRN 07),2008-012A,2026-07-18T01:06:57.249216,2.00573231,.02117053,54.5003,148.6919,248.1782,109.5290,0,U,32711,999,13437,0,.31E-6,0
GPS BIIRM-8 (PRN 05),2009-043A,2026-07-19T13:06:38.865888,2.00552603,.00536763,56.2306,26.1820,84.5808,285.6534,0,U,35752,999,12401,0,-.9E-6,0
COSMOS 2456 (730),2009-070A,2026-07-16T04:16:30.382752,2.13103565,.0003619,65.0282,69.9837,341.3386,195.9451,0,U,36111,999,12904,0,-.16E-6,0
COSMOS 2457 (733),2009-070B,2026-07-19T07:19:47.583840,2.13100981,.00042358,65.0158,69.7202,121.8633,61.6895,0,U,36112,999,12911,0,-.44E-6,0
COSMOS 2460 (732),2010-007C,2026-07-18T08:33:38.668320,2.13101436,.0001849,65.4006,313.4121,148.1871,29.5036,0,U,36402,999,12739,0,-.72E-6,0
GPS BIIF-1  (PRN 25),2010-022A,2026-07-19T08:57:08.476128,2.00564007,.01268321,54.2683,207.2654,66.1582,299.0499,0,U,36585,999,11824,0,.56E-6,0
BEIDOU-2 IGSO-1 (C06),2010-036A,2026-07-17T20:09:07.585632,1.00263080,.00588528,54.3070,162.6827,225.1686,317.0611,0,U,36828,999,5840,0,-.112E-5,0
BEIDOU-2 G4 (C04),2010-057A,2026-07-19T12:13:37.401888,1.00272622,.0005457,3.7257,68.7488,185.8434,26.0421,0,U,37210,999,5761,0,-.119E-5,0
BEIDOU-2 IGSO-2 (C07),2010-068A,2026-07-17T22:09:02.283840,1.00272861,.00569562,47.4899,271.4483,213.9138,250.9288,0,U,37256,999,5710,0,-.202E-5,0
BEIDOU-2 IGSO-3 (C08),2011-013A,2026-07-19T11:57:45.076896,1.00259758,.00356634,62.4524,39.8452,183.4558,359.6554,0,U,37384,999,5598,0,-.176E-5,0
GSAT-8 (GAGAN/PRN 127),2011-022A,2026-07-19T13:26:22.926048,1.00271184,.0002568,2.2129,81.4300,153.5033,319.0884,0,U,37605,999,5354,0,.79E-6,0
BEIDOU-2 IGSO-4 (C09),2011-038A,2026-07-18T20:40:43.128192,1.00278571,.01602377,54.6051,165.3909,231.4789,304.3437,0,U,37763,999,5496,0,-.26E-6,0
GSAT0101 (GALILEO-PFM),2011-060A,2026-07-17T22:29:50.024256,1.70475655,.0002114,56.9832,340.9281,62.8592,297.1517,0,U,37846,999,9164,0,-.105E-5,0
GSAT0102 (GALILEO-FM2),2011-060B,2026-07-15T12:19:38.977248,1.70475846,.00021082,56.9849,340.9943,7.4765,350.6813,0,U,37847,999,9160,0,-.101E-5,0
COSMOS 2476 (744),2011-064A,2026-07-18T04:11:02.956128,2.13103618,.00220678,65.2874,71.8256,235.6441,301.3919,0,U,37867,999,11442,0,-.32E-6,0
COSMOS 2477 (745),2011-064B,2026-07-19T09:01:21.552960,2.13102797,.00190628,65.2948,71.8648,236.5942,322.5208,0,U,37868,999,11444,0,-.43E-6,0
COSMOS 2475 (743),2011-064C,2026-07-19T09:54:59.368032,2.13101651,.00245691,65.3016,71.8854,250.6224,292.0479,0,U,37869,999,11445,0,-.44E-6,0
